[{"OBJECT_NAME":"ONEWEB-0390","OBJECT_ID":"2021-132B","EPOCH":"2026-03-09T21:01:16.663584","MEAN_MOTION":13.17648103,"ECCENTRICITY":0.00020805,"INCLINATION":87.9152,"RA_OF_ASC_NODE":25.5899,"ARG_OF_PERICENTER":78.0552,"MEAN_ANOMALY":282.0813,"EPHEMERIS_TYPE":0,"CLASSIFICATION_TYPE":"U","NORAD_CAT_ID":50470,"ELEMENT_SET_NO":999,"REV_AT_EPOCH":20500,"BSTAR":0.00019808978,"MEAN_MOTION_DOT":9.0e-7,"MEAN_MOTION_DDOT":0},{"OBJECT_NAME":"UNKNOWN","OBJECT_ID":"","EPOCH":"2026-03-08T06:29:59.000064","MEAN_MOTION":13.20472338,"ECCENTRICITY":0.0169693,"INCLINATION":102.4115,"RA_OF_ASC_NODE":189.4901,"ARG_OF_PERICENTER":33.9798,"MEAN_ANOMALY":327.2043,"EPHEMERIS_TYPE":0,"CLASSIFICATION_TYPE":"U","NORAD_CAT_ID":81899,"ELEMENT_SET_NO":999,"REV_AT_EPOCH":59027,"BSTAR":0.0049166,"MEAN_MOTION_DOT":2.09e-5,"MEAN_MOTION_DDOT":0}]
